0 SL-8 R/B
1 18945U 88016J   13282.46115676 -.00000066  00000-0 -44722-3 0  2238
2 18945 074.0095 222.4346 0140655 240.1018 258.8277 12.23950289143170
0 SL-8 R/B
1 18945U 88016J   13286.85937269 -.00000030  00000-0 -13306-3 0  2252
2 18945 074.0097 216.8612 0140633 233.8282 198.3281 12.23949898143710
0 SL-8 R/B
1 18945U 88016J   13289.15572457 -.00000015  00000-0  98786-6 0  2263
2 18945 074.0097 213.9514 0140642 230.5562 236.5511 12.23949567143998
0 SL-8 R/B
1 18945U 88016J   13291.52415711 -.00000047  00000-0 -28310-3 0  2276
2 18945 074.0096 210.9503 0140590 227.1718 232.3779 12.23950070144283
0 SL-8 R/B
1 18945U 88016J   13293.80244367 -.00000025  00000-0 -83694-4 0  2280
2 18945 074.0094 208.0635 0140595 223.9282 190.9981 12.23949982144565
0 SL-8 R/B
1 18945U 88016J   13296.19877541 -.00000027  00000-0 -10727-3 0  2290
2 18945 074.0091 205.0273 0140529 220.4971 309.7675 12.23949919144853
